NIMIQ 4                 
1 33373U 08044A   26166.38534147  .00000000  00000+0  00000+0 0  9999
2 33373   0.0310  37.5563 0002127  38.6999 244.1688  1.00268221 64960
GALAXY 19 (G-19)        
1 33376U 08045A   26166.38149911 -.00000136  00000+0  00000+0 0  9995
2 33376   0.0408 264.5307 0002375 182.4142 217.0672  1.00270958 64885
ASTRA 1M                
1 33436U 08057A   26166.33415781  .00000124  00000+0  00000+0 0  9997
2 33436   0.2920  82.4254 0004625  23.8330 297.0189  1.00270741 45710
EUTELSAT HOTBIRD 13C    
1 33459U 08065A   26166.46292501 -.00000282  00000+0  00000+0 0  9994
2 33459   2.9461  79.2107 0003260   4.4182 296.4787  1.00271415 47324
EXPRESS-AM44            
1 33595U 09007A   26166.39946821 -.00000089  00000+0  00000+0 0  9990
2 33595   3.4580  78.4141 0003818 359.3551 318.7174  1.00270972 52267
NSS-9                   
1 33749U 09008A   26166.15267918  .00000075  00000+0  00000+0 0  9993
2 33749   1.2567  82.6777 0001839 349.2934  69.5171  1.00273074 63508
TELSTAR 11N             
1 34111U 09009A   26166.39418152 -.00000248  00000+0  00000+0 0  9995
2 34111   0.0153  48.7998 0002144  29.0719 290.1513  1.00270859 46222
WGS F2 (USA 204)        
1 34713U 09017A   26166.48433757  .00000071  00000+0  00000+0 0  9993
2 34713   0.0169 350.7003 0000468 286.6242 218.3135  1.00269870 45603
SES-7 (PROTOSTAR 2)     
1 34941U 09027A   26166.28050799 -.00000341  00000+0  00000+0 0  9997
2 34941   0.0581  76.3170 0000521 247.0108 149.4859  1.00270418 62619
MEASAT-3A               
1 35362U 09032A   26166.51433785 -.00000108  00000+0  00000+0 0  9998
2 35362   0.0229 341.7218 0002824  96.8650 170.3789  1.00271549  8013
GOES 14                 
1 35491U 09033A   26166.51989272 -.00000283  00000+0  00000+0 0  9993
2 35491   1.6860  83.0619 0001716  10.8900 139.8047  1.00111296  6576
FM-5                    
1 35493U 09034A   26165.81425551 -.00000194  00000+0  00000+0 0  9994
2 35493   0.0205 292.4193 0001018  18.8658 158.8044  1.00269724 46628
TERRESTAR-1             
1 35496U 09035A   26166.38732545 -.00000057  00000+0  00000+0 0  9993
2 35496   5.1818  48.7997 0002790  26.7668 216.5299  1.00270024 62119
ASIASAT 5               
1 35696U 09042A   26166.49285380 -.00000305  00000+0  00000+0 0  9991
2 35696   0.0156 309.4763 0001690 112.7167 119.5118  1.00273633 61699
JCSAT-12 (JCSAT-RA)     
1 35755U 09044A   26166.42775126 -.00000325  00000+0  00000+0 0  9996
2 35755   0.0112 322.4340 0000466 354.6494 232.6620  1.00271797 61596
OPTUS D3                
1 35756U 09044B   26166.51433785 -.00000143  00000+0  00000+0 0  9997
2 35756   0.8720 269.0595 0002696 180.2084 155.8309  1.00268913 61544
NIMIQ 5                 
1 35873U 09050A   26166.45850500 -.00000254  00000+0  00000+0 0  9998
2 35873   0.0133 300.9198 0002598 139.1640 276.0298  1.00270560 61320
AMAZONAS 2              
1 35942U 09054A   26166.45867832 -.00000257  00000+0  00000+0 0  9998
2 35942   1.8113  83.0703 0003146 357.3160 276.4765  1.00269111 61161
COMSATBW-1              
1 35943U 09054B   26166.48537757  .00000027  00000+0  00000+0 0  9996
2 35943   0.0776  78.0243 0002733  12.5872  50.9158  1.00272757 61297
NSS-12                  
1 36032U 09058A   26166.48425089  .00000074  00000+0  00000+0 0  9996
2 36032   0.0413  47.8455 0004486   3.2181  84.0384  1.00273699 60903
THOR 6                  
1 36033U 09058B   26166.33017115  .00000000  00000+0  00000+0 0  9997
2 36033   0.0165  37.2517 0001528  41.5495 302.8402  1.00270069 60985
INTELSAT 14 (IS-14)     
1 36097U 09064A   26166.46396501 -.00000271  00000+0  00000+0 0  9998
2 36097   0.0222 292.8986 0002215 140.2018 312.6838  1.00267871 60585
EUTELSAT 36B            
1 36101U 09065A   26166.48295089  .00000114  00000+0  00000+0 0  9991
2 36101   0.4873  81.0869 0005763   1.5610  45.4781  1.00273062 60692
INTELSAT 15 (IS-15)     
1 36106U 09067A   26166.48979758 -.00000182  00000+0  00000+0 0  9996
2 36106   0.0171 302.3670 0001873 151.5293  71.3534  1.00268544 41214
WGS F3 (USA 211)        
1 36108U 09068A   26166.44715160  .00000067  00000+0  00000+0 0  9991
2 36108   0.3277  85.7949 0000128 156.6979  52.2179  1.00268859 46572
DIRECTV 12              
1 36131U 09075A   26166.45252497 -.00000101  00000+0  00000+0 0  9995
2 36131   0.0233 154.0951 0000337 245.9985 283.8318  1.00272220 46531
BEIDOU-2 G1             
1 36287U 10001A   26166.50078148 -.00000280  00000+0  00000+0 0  9991
2 36287   4.2886  60.4100 0002317 297.5447 226.5870  1.00270875 60150
SDO                     
1 36395U 10005A   26165.43714222 -.00000094  00000+0  00000+0 0  9999
2 36395  34.6460  86.3840 0001714  49.5303 182.1298  1.00269990 60033
INTELSAT 16 (IS-16)     
1 36397U 10006A   26166.45781166 -.00000242  00000+0  00000+0 0  9991
2 36397   0.0193 305.3193 0001915 160.1112 246.9194  1.00269456 59636
EWS-G2 (GOES 15)        
1 36411U 10008A   26166.48555089  .00000020  00000+0  00000+0 0  9999
2 36411   1.2732  82.8818 0005388  42.3870  17.0000  1.00275722 59621
ECHOSTAR 14             
1 36499U 10010A   26166.44940493  .00000003  00000+0  00000+0 0  9992
2 36499   0.0421  83.6602 0002309  19.0756 203.9027  1.00272338 46534
SES-1                   
1 36516U 10016A   26166.38360556 -.00000111  00000+0  00000+0 0  9998
2 36516   0.0150 325.9226 0002486 117.4096 217.4366  1.00271129 59013
