OBJECT_NAME,OBJECT_ID,EPOCH,MEAN_MOTION,ECCENTRICITY,INCLINATION,RA_OF_ASC_NODE,ARG_OF_PERICENTER,MEAN_ANOMALY,EPHEMERIS_TYPE,CLASSIFICATION_TYPE,NORAD_CAT_ID,ELEMENT_SET_NO,REV_AT_EPOCH,BSTAR,MEAN_MOTION_DOT,MEAN_MOTION_DDOT
NIMIQ 4,2008-044A,2026-06-15T09:14:53.503008,1.00268221,.0002127,0.0310,37.5563,38.6999,244.1688,0,U,33373,999,6496,0,0,0
GALAXY 19 (G-19),2008-045A,2026-06-15T09:09:21.523104,1.00270958,.0002375,0.0408,264.5307,182.4142,217.0672,0,U,33376,999,6488,0,-.136E-5,0
ASTRA 1M,2008-057A,2026-06-15T08:01:11.234784,1.00270741,.0004625,0.2920,82.4254,23.8330,297.0189,0,U,33436,999,4571,0,.124E-5,0
EUTELSAT HOTBIRD 13C,2008-065A,2026-06-15T11:06:36.720864,1.00271415,.000326,2.9461,79.2107,4.4182,296.4787,0,U,33459,999,4732,0,-.282E-5,0
EXPRESS-AM44,2009-007A,2026-06-15T09:35:14.053344,1.00270972,.0003818,3.4580,78.4141,359.3551,318.7174,0,U,33595,999,5226,0,-.89E-6,0
NSS-9,2009-008A,2026-06-15T03:39:51.481152,1.00273074,.00018396,1.2567,82.6777,349.2934,69.5171,0,U,33749,999,6350,0,.75E-6,0
TELSTAR 11N,2009-009A,2026-06-15T09:27:37.283328,1.00270859,.0002144,0.0153,48.7998,29.0719,290.1513,0,U,34111,999,4622,0,-.248E-5,0
WGS F2 (USA 204),2009-017A,2026-06-15T11:37:26.766048,1.00269870,.0000468,0.0169,350.7003,286.6242,218.3135,0,U,34713,999,4560,0,.71E-6,0
SES-7 (PROTOSTAR 2),2009-027A,2026-06-15T06:43:55.890336,1.00270418,.0000521,0.0581,76.3170,247.0108,149.4859,0,U,34941,999,6261,0,-.341E-5,0
MEASAT-3A,2009-032A,2026-06-15T12:20:38.790240,1.00271549,.0002824,0.0229,341.7218,96.8650,170.3789,0,U,35362,999,801,0,-.108E-5,0
GOES 14,2009-033A,2026-06-15T12:28:38.731008,1.00111296,.0001716,1.6860,83.0619,10.8900,139.8047,0,U,35491,999,657,0,-.283E-5,0
FM-5,2009-034A,2026-06-14T19:32:31.676064,1.00269724,.00010188,0.0205,292.4193,18.8658,158.8044,0,U,35493,999,4662,0,-.194E-5,0
TERRESTAR-1,2009-035A,2026-06-15T09:17:44.918880,1.00270024,.000279,5.1818,48.7997,26.7668,216.5299,0,U,35496,999,6211,0,-.57E-6,0
ASIASAT 5,2009-042A,2026-06-15T11:49:42.568320,1.00273633,.000169,0.0156,309.4763,112.7167,119.5118,0,U,35696,999,6169,0,-.305E-5,0
JCSAT-12 (JCSAT-RA),2009-044A,2026-06-15T10:15:57.708864,1.00271797,.0000466,0.0112,322.4340,354.6494,232.6620,0,U,35755,999,6159,0,-.325E-5,0
OPTUS D3,2009-044B,2026-06-15T12:20:38.790240,1.00268913,.0002696,0.8720,269.0595,180.2084,155.8309,0,U,35756,999,6154,0,-.143E-5,0
NIMIQ 5,2009-050A,2026-06-15T11:00:14.832000,1.00270560,.0002598,0.0133,300.9198,139.1640,276.0298,0,U,35873,999,6132,0,-.254E-5,0
AMAZONAS 2,2009-054A,2026-06-15T11:00:29.806848,1.00269111,.0003146,1.8113,83.0703,357.3160,276.4765,0,U,35942,999,6116,0,-.257E-5,0
COMSATBW-1,2009-054B,2026-06-15T11:38:56.622048,1.00272757,.0002733,0.0776,78.0243,12.5872,50.9158,0,U,35943,999,6129,0,.27E-6,0
NSS-12,2009-058A,2026-06-15T11:37:19.276896,1.00273699,.0004486,0.0413,47.8455,3.2181,84.0384,0,U,36032,999,6090,0,.74E-6,0
THOR 6,2009-058B,2026-06-15T07:55:26.787360,1.00270069,.0001528,0.0165,37.2517,41.5495,302.8402,0,U,36033,999,6098,0,0,0
INTELSAT 14 (IS-14),2009-064A,2026-06-15T11:08:06.576864,1.00267871,.0002215,0.0222,292.8986,140.2018,312.6838,0,U,36097,999,6058,0,-.271E-5,0
EUTELSAT 36B,2009-065A,2026-06-15T11:35:26.956896,1.00273062,.0005763,0.4873,81.0869,1.5610,45.4781,0,U,36101,999,6069,0,.114E-5,0
INTELSAT 15 (IS-15),2009-067A,2026-06-15T11:45:18.510912,1.00268544,.0001873,0.0171,302.3670,151.5293,71.3534,0,U,36106,999,4121,0,-.182E-5,0
WGS F3 (USA 211),2009-068A,2026-06-15T10:43:53.898240,1.00268859,.0000128,0.3277,85.7949,156.6979,52.2179,0,U,36108,999,4657,0,.67E-6,0
DIRECTV 12,2009-075A,2026-06-15T10:51:38.157408,1.00272220,.0000337,0.0233,154.0951,245.9985,283.8318,0,U,36131,999,4653,0,-.101E-5,0
BEIDOU-2 G1,2010-001A,2026-06-15T12:01:07.519872,1.00270875,.0002317,4.2886,60.4100,297.5447,226.5870,0,U,36287,999,6015,0,-.28E-5,0
SDO,2010-005A,2026-06-14T10:29:29.087808,1.00269990,.00017144,34.6460,86.3840,49.5303,182.1298,0,U,36395,999,6003,0,-.94E-6,0
INTELSAT 16 (IS-16),2010-006A,2026-06-15T10:59:14.927424,1.00269456,.0001915,0.0193,305.3193,160.1112,246.9194,0,U,36397,999,5963,0,-.242E-5,0
EWS-G2 (GOES 15),2010-008A,2026-06-15T11:39:11.596896,1.00275722,.0005388,1.2732,82.8818,42.3870,17.0000,0,U,36411,999,5962,0,.2E-6,0
ECHOSTAR 14,2010-010A,2026-06-15T10:47:08.585952,1.00272338,.0002309,0.0421,83.6602,19.0756,203.9027,0,U,36499,999,4653,0,.3E-7,0
SES-1,2010-016A,2026-06-15T09:12:23.520384,1.00271129,.0002486,0.0150,325.9226,117.4096,217.4366,0,U,36516,999,5901,0,-.111E-5,0
